norad_id,name,regime,epoch,line1,line2,inclination,eccentricity,mean_motion,raan,arg_pericenter,mean_anomaly
43015,MIRATA,LEO,24165.42335515,1 43015U 17073C   24165.42335515  .00016502  00000-0  78197-3 0   560\,2 43015  97.5960  50.2096 0167963 273.8072  84.3967 15.07694560355760,97.596,0.0167963,15.0769456,50.2096,273.8072,84.3967
43015,MIRATA,LEO,24165.62245923,1 43015U 17073C   24165.62245923  .00015035  00000-0  71288-3 0    19\,2 43015  97.5961  50.4064 0167934 273.1196  85.0830 15.07699656355797,97.5961,0.0167934,15.07699656,50.4064,273.1196,85.083
43015,MIRATA,LEO,24166.61796782,1 43015U 17073C   24166.61796782  .00014867  00000-0  70480-3 0    18\,2 43015  97.5964  51.3906 0167763 269.6790  88.5214 15.07730753355940,97.5964,0.0167763,15.07730753,51.3906,269.679,88.5214
43015,MIRATA,LEO,24167.61345642,1 43015U 17073C   24167.61345642  .00016863  00000-0  79838-3 0    18\,2 43015  97.5968  52.3748 0167586 266.2307  91.9746 15.07765115356094,97.5968,0.0167586,15.07765115,52.3748,266.2307,91.9746
43015,MIRATA,LEO,24167.94528070,1 43015U 17073C   24167.94528070  .00019480  00000-0  92119-3 0    17\,2 43015  97.5968  52.7029 0167523 265.0827  93.1257 15.07779663356145,97.5968,0.0167523,15.07779663,52.7029,265.0827,93.1257
43015,MIRATA,LEO,24168.60892246,1 43015U 17073C   24168.60892246  .00016895  00000-0  79950-3 0    15\,2 43015  97.5969  53.3591 0167424 262.7806  95.4363 15.07800970356248,97.5969,0.0167424,15.0780097,53.3591,262.7806,95.4363
43015,MIRATA,LEO,24168.94073938,1 43015U 17073C   24168.94073938  .00017228  00000-0  81499-3 0    13\,2 43015  97.5969  53.6871 0167383 261.6341  96.5881 15.07813062356296,97.5969,0.0167383,15.07813062,53.6871,261.6341,96.5881
43015,MIRATA,LEO,24169.60436728,1 43015U 17073C   24169.60436728  .00014775  00000-0  69951-3 0   605\,2 43015  97.5969  54.3432 0167304 259.3319  98.9031 15.07832551356397,97.5969,0.0167304,15.07832551,54.3432,259.3319,98.9031
43015,MIRATA,LEO,24169.93617800,1 43015U 17073C   24169.93617800  .00015173  00000-0  71801-3 0    18\,2 43015  97.5969  54.6713 0167289 258.1842 100.0581 15.07842875356443,97.5969,0.0167289,15.07842875,54.6713,258.1842,100.0581
43015,MIRATA,LEO,24170.59979335,1 43015U 17073C   24170.59979335  .00014732  00000-0  69695-3 0    14\,2 43015  97.5968  55.3275 0167256 255.8833 102.3759 15.07863029356548,97.5968,0.0167256,15.07863029,55.3275,255.8833,102.3759
43015,MIRATA,LEO,24170.66615440,1 43015U 17073C   24170.66615440  .00014657  00000-0  69340-3 0    19\,2 43015  97.5968  55.3931 0167256 255.6544 102.6066 15.07865093356552,97.5968,0.0167256,15.07865093,55.3931,255.6544,102.6066
43015,MIRATA,LEO,24171.46248064,1 43015U 17073C   24171.46248064  .00013037  00000-0  61685-3 0    17\,2 43015  97.5966  56.1806 0167269 252.9019 105.3830 15.07887234356674,97.5966,0.0167269,15.07887234,56.1806,252.9019,105.383
43015,MIRATA,LEO,24171.92699897,1 43015U 17073C   24171.92699897  .00011918  00000-0  56408-3 0   622\,2 43015  97.5962  56.6399 0167272 251.2966 107.0043 15.07899622356746,97.5962,0.0167272,15.07899622,56.6399,251.2966,107.0043
43015,MIRATA,LEO,24172.59059009,1 43015U 17073C   24172.59059009  .00012593  00000-0  59532-3 0    15\,2 43015  97.5958  57.2960 0167302 249.0075 109.3185 15.07919683356845,97.5958,0.0167302,15.07919683,57.296,249.0075,109.3185
43015,MIRATA,LEO,24172.92238302,1 43015U 17073C   24172.92238302  .00012236  00000-0  57839-3 0    19\,2 43015  97.5956  57.6240 0167318 247.8734 110.4661 15.07927870356897,97.5956,0.0167318,15.0792787,57.624,247.8734,110.4661
43015,MIRATA,LEO,24173.58596336,1 43015U 17073C   24173.58596336  .00013481  00000-0  63625-3 0    19\,2 43015  97.5951  58.2800 0167361 245.5929 112.7756 15.07947234356997,97.5951,0.0167361,15.07947234,58.28,245.5929,112.7756
43015,MIRATA,LEO,24173.65232105,1 43015U 17073C   24173.65232105  .00013347  00000-0  62992-3 0    15\,2 43015  97.5951  58.3456 0167365 245.3642 113.0075 15.07948870357007,97.5951,0.0167365,15.0794887,58.3456,245.3642,113.0075
43015,MIRATA,LEO,24174.58132185,1 43015U 17073C   24174.58132185  .00012794  00000-0  60347-3 0    12\,2 43015  97.5945  59.2639 0167431 242.1772 116.2403 15.07970740357142,97.5945,0.0167431,15.0797074,59.2639,242.1772,116.2403
43015,MIRATA,LEO,24174.91310482,1 43015U 17073C   24174.91310482  .00013124  00000-0  61873-3 0    10\,2 43015  97.5942  59.5919 0167437 241.0406 117.3946 15.07978603357196,97.5942,0.0167437,15.07978603,59.5919,241.0406,117.3946
43015,MIRATA,LEO,24175.17852978,1 43015U 17073C   24175.17852978  .00012776  00000-0  60229-3 0   645\,2 43015  97.5941  59.8543 0167453 240.1277 118.3222 15.07985258357232,97.5941,0.0167453,15.07985258,59.8543,240.1277,118.3222
43015,MIRATA,LEO,24175.57666529,1 43015U 17073C   24175.57666529  .00014042  00000-0  66121-3 0    10\,2 43015  97.5939  60.2478 0167465 238.7607 119.7122 15.07996662357296,97.5939,0.0167465,15.07996662,60.2478,238.7607,119.7122
43015,MIRATA,LEO,24175.90844225,1 43015U 17073C   24175.90844225  .00015414  00000-0  72507-3 0    17\,2 43015  97.5938  60.5757 0167461 237.6260 120.8668 15.08007432357340,97.5938,0.0167461,15.08007432,60.5757,237.626,120.8668
43015,MIRATA,LEO,24176.57199013,1 43015U 17073C   24176.57199013  .00014961  00000-0  70347-3 0   655\,2 43015  97.5937  61.2316 0167477 235.3458 123.1887 15.08027243357441,97.5937,0.0167477,15.08027243,61.2316,235.3458,123.1887
43015,MIRATA,LEO,24176.90376085,1 43015U 17073C   24176.90376085  .00015035  00000-0  70672-3 0    12\,2 43015  97.5937  61.5596 0167463 234.2113 124.3452 15.08037323357491,97.5937,0.0167463,15.08037323,61.5596,234.2113,124.3452
43015,MIRATA,LEO,24177.63364833,1 43015U 17073C   24177.63364833  .00016615  00000-0  77987-3 0   663\,2 43015  97.5938  62.2814 0167444 231.7039 126.9031 15.08062921357607,97.5938,0.0167444,15.08062921,62.2814,231.7039,126.9031
43015,MIRATA,LEO,24178.23081922,1 43015U 17073C   24178.23081922  .00018615  00000-0  87253-3 0   675\,2 43015  97.5939  62.8717 0167407 229.6432 129.0077 15.08087045357695,97.5939,0.0167407,15.08087045,62.8717,229.6432,129.0077
43015,MIRATA,LEO,24179.42513344,1 43015U 17073C   24179.42513344  .00020098  00000-0  94049-3 0   685\,2 43015  97.5943  64.0528 0167310 225.5198 133.2251 15.08136663357873,97.5943,0.016731,15.08136663,64.0528,225.5198,133.2251
43015,MIRATA,LEO,24179.69053164,1 43015U 17073C   24179.69053164  .00019716  00000-0  92254-3 0    11\,2 43015  97.5944  64.3153 0167280 224.6036 134.1632 15.08147323357911,97.5944,0.016728,15.08147323,64.3153,224.6036,134.1632
43015,MIRATA,LEO,24180.61940804,1 43015U 17073C   24180.61940804  .00030298  00000-0  14123-2 0   691\,2 43015  97.5948  65.2339 0167174 221.3661 137.4809 15.08198494358054,97.5948,0.0167174,15.08198494,65.2339,221.3661,137.4809
43015,MIRATA,LEO,24180.95114077,1 43015U 17073C   24180.95114077  .00029357  00000-0  13679-2 0    18\,2 43015  97.5949  65.5618 0167154 220.2103 138.6662 15.08219562358101,97.5949,0.0167154,15.08219562,65.5618,220.2103,138.6662
43015,MIRATA,LEO,24181.61459497,1 43015U 17073C   24181.61459497  .00025452  00000-0  11863-2 0    15\,2 43015  97.5952  66.2186 0167005 217.9047 141.0330 15.08255631358206,97.5952,0.0167005,15.08255631,66.2186,217.9047,141.033
43015,MIRATA,LEO,24181.68093938,1 43015U 17073C   24181.68093938  .00025699  00000-0  11976-2 0    14\,2 43015  97.5953  66.2842 0167000 217.6749 141.2690 15.08259816358218,97.5953,0.0167,15.08259816,66.2842,217.6749,141.269
43015,MIRATA,LEO,24182.60975029,1 43015U 17073C   24182.60975029  .00022657  00000-0  10556-2 0    11\,2 43015  97.5954  67.2029 0166935 214.4473 144.5847 15.08300301358353,97.5954,0.0166935,15.08300301,67.2029,214.4473,144.5847
43015,MIRATA,LEO,24182.74243526,1 43015U 17073C   24182.74243526  .00023213  00000-0  10811-2 0   716\,2 43015  97.5953  67.3340 0166936 213.9895 145.0552 15.08307507358378,97.5953,0.0166936,15.08307507,67.334,213.9895,145.0552
43015,MIRATA,LEO,24182.94146179,1 43015U 17073C   24182.94146179  .00023758  00000-0  11059-2 0    16\,2 43015  97.5953  67.5308 0166956 213.2945 145.7695 15.08317181358403,97.5953,0.0166956,15.08317181,67.5308,213.2945,145.7695
43015,MIRATA,LEO,24183.60487629,1 43015U 17073C   24183.60487629  .00020999  00000-0  97755-3 0    10\,2 43015  97.5953  68.1874 0166907 211.0125 148.1168 15.08344463358506,97.5953,0.0166907,15.08344463,68.1874,211.0125,148.1168
43015,MIRATA,LEO,24183.93657871,1 43015U 17073C   24183.93657871  .00021199  00000-0  98617-3 0    15\,2 43015  97.5952  68.5154 0166950 209.8618 149.3006 15.08359078358557,97.5952,0.016695,15.08359078,68.5154,209.8618,149.3006
43015,MIRATA,LEO,24184.20193865,1 43015U 17073C   24184.20193865  .00017399  00000-0  81015-3 0   723\,2 43015  97.5951  68.7780 0166966 208.9445 150.2448 15.08368411358594,97.5951,0.0166966,15.08368411,68.778,208.9445,150.2448
43015,MIRATA,LEO,24184.59997572,1 43015U 17073C   24184.59997572  .00018450  00000-0  85850-3 0    14\,2 43015  97.5950  69.1721 0166931 207.5846 151.6452 15.08383200358655,97.595,0.0166931,15.083832,69.1721,207.5846,151.6452
43015,MIRATA,LEO,24184.66631484,1 43015U 17073C   24184.66631484  .00018433  00000-0  85761-3 0    11\,2 43015  97.5949  69.2377 0166935 207.3587 151.8777 15.08385798358662,97.5949,0.0166935,15.08385798,69.2377,207.3587,151.8777
43015,MIRATA,LEO,24185.39603741,1 43015U 17073C   24185.39603741  .00017193  00000-0  79945-3 0   735\,2 43015  97.5946  69.9596 0166984 204.8606 154.4513 15.08412626358777,97.5946,0.0166984,15.08412626,69.9596,204.8606,154.4513
43015,MIRATA,LEO,24185.92673686,1 43015U 17073C   24185.92673686  .00016944  00000-0  78734-3 0    18\,2 43015  97.5943  70.4844 0167035 203.0591 156.3081 15.08432032358852,97.5943,0.0167035,15.08432032,70.4844,203.0591,156.3081
43015,MIRATA,LEO,24186.25842051,1 43015U 17073C   24186.25842051  .00016482  00000-0  76566-3 0    17\,2 43015  97.5940  70.8125 0167047 201.9255 157.4770 15.08444827358900,97.594,0.0167047,15.08444827,70.8125,201.9255,157.477
